GOES 1 (SMS-C) [-]      
1 08366U 75100A   23318.53554779  .00000075  00000+0  00000+0 0  9998
2 08366   7.0116 289.2568 0003838 297.1927 251.1038  1.00264069175583
GOES 2 [-]              
1 10061U 77048A   23319.12839281  .00000089  00000+0  00000+0 0  9991
2 10061   8.6661 301.8043 0010887  27.5430  10.8146  0.99394628114120
GOES 3 [-]              
1 10953U 78062A   23318.62202097  .00000071  00000+0  00000+0 0  9992
2 10953   9.0451 306.7171 0002055 223.9584 141.3949  0.99360736119149
GOES 4 [-]              
1 11964U 80074A   23319.17853253  .00000076  00000+0  00000+0 0  9993
2 11964  10.0453 310.5479 0030447  87.5893 298.0861  0.99229788118258
GOES 5 [-]              
1 12472U 81049A   23319.12553286  .00000042  00000+0  00000+0 0  9992
2 12472  11.0563 322.3754 0002827 248.5153 122.7276  1.00216427113484
GOES 6 [-]              
1 14050U 83041A   23318.18334196  .00000061  00000+0  00000+0 0  9993
2 14050  11.7069 327.8135 0004087 196.8585 184.7822  1.00242307206533
GOES 7 [-]              
1 17561U 87022A   23318.54442411 -.00000168  00000+0  00000+0 0  9995
2 17561  13.7914 344.4696 0002185  92.4503  88.4413  0.99893076117516
GOES 8 [-]              
1 23051U 94022A   23318.41545644 -.00000217  00000+0  00000+0 0  9997
2 23051  13.6166  20.5629 0002619  76.3979  93.3346  0.98907638114777
GOES 9 [-]              
1 23581U 95025A   23318.78713050  .00000050  00000+0  00000+0 0  9991
2 23581  13.1192  21.0947 0007366 151.4305 220.5362  0.98798078103428
GOES 10 [-]             
1 24786U 97019A   23318.34632763 -.00000241  00000+0  00000+0 0  9990
2 24786  12.0101  27.4742 0029540 211.7865 270.7353  0.99126646 96690
GOES 11 [-]             
1 26352U 00022A   23318.83590987  .00000070  00000+0  00000+0 0  9993
2 26352   9.7822  55.0817 0004530 188.2275 156.8103  0.99041030 43107
GOES 12 [-]             
1 26871U 01031A   23318.58810951 -.00000275  00000+0  00000+0 0  9996
2 26871  10.4506  44.6695 0004253 272.8283  82.9192  0.99139553 81387
EWS-G1 (GOES 13) [+]    
1 29155U 06018A   23319.14101618  .00000035  00000+0  00000+0 0  9993
2 29155   1.8921  89.0723 0004973 142.0404 267.8373  0.99008577 64036
GOES 14 [B]             
1 35491U 09033A   23319.38917177 -.00000044  00000+0  00000+0 0  9995
2 35491   0.2428 262.4747 0002094 260.7033 282.5651  1.00271352 52689
GOES 15 [B]             
1 36411U 10008A   23318.57348970  .00000058  00000+0  00000+0 0  9995
2 36411   0.2402 273.9260 0006299 331.2120  76.5366  1.00272865 50168
GOES 16 [+]             
1 41866U 16071A   23319.15488466 -.00000226  00000+0  00000+0 0  9999
2 41866   0.0282 276.3061 0000796   0.8878 117.3768  1.00271384 25621
GOES 17 [+]             
1 43226U 18022A   23318.91994307 -.00000068  00000+0  00000+0 0  9992
2 43226   0.0509  95.7242 0001740 121.1767  63.3987  1.00271496 20940
GOES 18 [+]             
1 51850U 22021A   23319.39352519  .00000118  00000+0  00000+0 0  9999
2 51850   0.0047  37.0639 0000330 137.9374 243.9141  1.00271184  6330
